[{"OBJECT_NAME":"KUIPER-00128","OBJECT_ID":"2025-228L","EPOCH":"2026-03-09T23:21:50.737824","MEAN_MOTION":14.79901973,"ECCENTRICITY":7.252e-5,"INCLINATION":51.9035,"RA_OF_ASC_NODE":351.8651,"ARG_OF_PERICENTER":103.1406,"MEAN_ANOMALY":256.9637,"EPHEMERIS_TYPE":0,"CLASSIFICATION_TYPE":"U","NORAD_CAT_ID":65957,"ELEMENT_SET_NO":999,"REV_AT_EPOCH":2337,"BSTAR":0.00048490484,"MEAN_MOTION_DOT":3.475e-5,"MEAN_MOTION_DDOT":0},{"OBJECT_NAME":"OBJECT E","OBJECT_ID":"2019-079E","EPOCH":"2026-03-09T23:32:16.414656","MEAN_MOTION":14.8535198,"ECCENTRICITY":0.01693653,"INCLINATION":97.6675,"RA_OF_ASC_NODE":77.1091,"ARG_OF_PERICENTER":315.2861,"MEAN_ANOMALY":43.4802,"EPHEMERIS_TYPE":0,"CLASSIFICATION_TYPE":"U","NORAD_CAT_ID":45915,"ELEMENT_SET_NO":999,"REV_AT_EPOCH":30492,"BSTAR":0.00041459103,"MEAN_MOTION_DOT":4.556e-5,"MEAN_MOTION_DDOT":0}]
